{"name":"Allison Hill","address":"18196 Anthony Forge","city":"New Carolyn","state":"ID","zipcode":"94351"}
{"name":"Kimberly Robinson","address":"26542 Susan Junction Apt. 161","city":"Melanieview","state":"AZ","zipcode":"96148"}
{"name":"Calvin Nielsen","address":"495 Janet Cape","city":"Port Keith","state":"IN","zipcode":"13739"}
{"name":"Jesse Flowers","address":"5341 Amanda Gardens","city":"South Noah","state":"UT","zipcode":"73501"}
{"name":"Frederick Tate","address":"05641 Robin Port","city":"Jasonfort","state":"SD","zipcode":"60643"}
{"name":"Charles Mcgee","address":"969 Cox Dam Suite 101","city":"Lake Ernest","state":"NE","zipcode":"78673"}
{"name":"James Ferrell","address":"018 Mack Junctions Apt. 462","city":"Smithview","state":"WV","zipcode":"23917"}
{"name":"Ashley Garrett","address":"52880 Burns Creek","city":"Natashaport","state":"AR","zipcode":"32072"}
{"name":"Theresa Miller","address":"82278 Joseph Well Suite 383","city":"Raymondstad","state":"NC","zipcode":"59678"}
{"name":"Danny Morgan","address":"301 Jeremy Bypass","city":"Chadbury","state":"TN","zipcode":"64125"}
{"name":"Carlos Walls","address":"76311 Gomez Loop Suite 010","city":"Chandlerville","state":"ID","zipcode":"25432"}
{"name":"Brenda White","address":"17810 Tanya Terrace Apt. 267","city":"Lewisfurt","state":"AR","zipcode":"22080"}
{"name":"William Baker","address":"6872 Kenneth Centers Apt. 500","city":"Shawhaven","state":"AR","zipcode":"67063"}
{"name":"Cody Larson","address":"1939 Christine Manor","city":"Sarahborough","state":"VT","zipcode":"41681"}
{"name":"James Powers","address":"5107 Charles Forest Suite 251","city":"West Justin","state":"ND","zipcode":"92715"}
{"name":"William Roman","address":"841 Joseph Coves","city":"West Juan","state":"VT","zipcode":"45443"}
{"name":"Mark Baker","address":"0164 Adam Trail Apt. 427","city":"Hoffmanville","state":"UT","zipcode":"20037"}
{"name":"Sandra Aguilar","address":"2045 Rachel Fords","city":"Lake Curtis","state":"OH","zipcode":"53765"}
{"name":"Nicole Frost","address":"26025 Pham Way","city":"West Erik","state":"CT","zipcode":"50641"}
{"name":"Shannon Walker","address":"4330 Raymond Harbors Apt. 458","city":"Frazierside","state":"AK","zipcode":"15619"}
{"name":"Debbie Carpenter","address":"19655 Obrien Pass Apt. 693","city":"Bradleychester","state":"NC","zipcode":"71076"}
{"name":"Teresa Mclaughlin","address":"6159 Alvarado Crossing","city":"Williamchester","state":"MO","zipcode":"91885"}
{"name":"Cameron Fisher","address":"299 Sullivan Village Apt. 443","city":"Floydmouth","state":"NV","zipcode":"58455"}
{"name":"Kayla Leon","address":"148 Davis Terrace","city":"Lake Lance","state":"ID","zipcode":"19814"}
{"name":"David Alvarez","address":"6936 Ross Drive","city":"Port Michelleville","state":"NE","zipcode":"29184"}
{"name":"Tyler Holmes","address":"317 Laurie Shores","city":"Stephaniemouth","state":"VA","zipcode":"66663"}
{"name":"Terry Griffin","address":"774 Mary Harbor","city":"Simsview","state":"CA","zipcode":"94026"}
{"name":"Devon Flores","address":"23623 Robert Isle","city":"Perryborough","state":"MT","zipcode":"51550"}
{"name":"Lauren Dominguez","address":"0546 Medina Street Apt. 734","city":"Tuckerfurt","state":"TN","zipcode":"89517"}
{"name":"Misty Pittman","address":"806 Christopher Meadow","city":"Port Steven","state":"KS","zipcode":"50190"}
{"name":"Jesse Rogers","address":"6417 Kaitlyn Center Suite 310","city":"East Jamestown","state":"FL","zipcode":"31767"}
{"name":"Michael Elliott","address":"4529 Kimberly Estates","city":"Danieltown","state":"OK","zipcode":"89282"}
{"name":"Jaime David","address":"93149 Laura Port","city":"West Amandastad","state":"NY","zipcode":"85375"}
{"name":"Samuel Short","address":"5726 Jessica Run","city":"Christinaside","state":"NJ","zipcode":"61432"}
{"name":"Nicholas Adams","address":"47379 Rogers Park","city":"Hunterborough","state":"KS","zipcode":"45109"}
{"name":"Kyle Beard","address":"313 Freeman Trace","city":"Lake Thomas","state":"NM","zipcode":"59244"}
{"name":"Anna Walker","address":"9578 Coleman Summit","city":"Michaelmouth","state":"ME","zipcode":"33452"}
{"name":"Nathan Stewart","address":"37498 Hooper Village","city":"West Jeremy","state":"ME","zipcode":"02355"}
{"name":"Beth Williams","address":"427 Monique Ports","city":"Taylormouth","state":"HI","zipcode":"07235"}
{"name":"Scott Wilson","address":"7190 Edward Port","city":"Christopherbury","state":"OH","zipcode":"55049"}
{"name":"Rachel Perez","address":"7496 Carroll Circle Apt. 334","city":"East Johnside","state":"GA","zipcode":"00851"}
{"name":"Michael Harrison","address":"44713 French Road","city":"South Danny","state":"SD","zipcode":"20029"}
{"name":"Samantha Jones","address":"9947 Taylor Hollow","city":"Benderhaven","state":"NM","zipcode":"57878"}
{"name":"Andrew Reynolds","address":"401 Suzanne Villages Apt. 490","city":"South April","state":"KY","zipcode":"24289"}
{"name":"Jessica Olsen DVM","address":"6551 Mark Square Suite 468","city":"South Christopherview","state":"DE","zipcode":"53477"}
{"name":"Samantha Smith","address":"0385 Garrett Trace Apt. 348","city":"West Samuel","state":"NM","zipcode":"16416"}
{"name":"Mark Lloyd","address":"8086 Jeffrey Ville","city":"South Staceyberg","state":"VT","zipcode":"38755"}
{"name":"Denise Davenport","address":"78263 Michelle Harbor Suite 584","city":"West Jessicashire","state":"TN","zipcode":"64679"}
{"name":"Jill Washington","address":"867 Kane Square Apt. 963","city":"Williamsfort","state":"MS","zipcode":"51105"}
{"name":"Rebecca Pearson MD","address":"89517 Alicia Motorway","city":"Lake Douglasberg","state":"NJ","zipcode":"35238"}
{"name":"Michael Santos","address":"865 Brennan Camp Apt. 343","city":"South Tiffanyville","state":"GA","zipcode":"91465"}
{"name":"Allen Nguyen","address":"5562 Amanda Port","city":"East Gregory","state":"MS","zipcode":"81727"}
{"name":"Kathleen Aguilar","address":"4740 Santana Springs","city":"North Scott","state":"OR","zipcode":"39711"}
{"name":"Jessica Wright","address":"67136 Andrews Squares Suite 064","city":"New Michelleton","state":"PA","zipcode":"98172"}
{"name":"Tanner Mitchell DDS","address":"39421 Kyle Mill Apt. 952","city":"West Markchester","state":"ID","zipcode":"17823"}
{"name":"Sherri Diaz","address":"47451 Mccarty Divide Apt. 685","city":"Port Ralphview","state":"DE","zipcode":"60110"}
{"name":"Paul Baker","address":"513 Johnson Points Suite 931","city":"Blankenshipport","state":"MT","zipcode":"15793"}
{"name":"Tracy Torres","address":"13826 Watson Summit Suite 926","city":"Port Tracychester","state":"AZ","zipcode":"90977"}
{"name":"Jeremy Sampson","address":"58506 Lopez Crossing Suite 139","city":"North Kristinbury","state":"WY","zipcode":"74501"}
{"name":"Ronald Spencer","address":"52904 Vanessa Plains","city":"Laurenville","state":"AK","zipcode":"17776"}
{"name":"Richard Young","address":"24026 Julie Mountains Suite 589","city":"South Williamton","state":"WY","zipcode":"86864"}
{"name":"Judith Maynard","address":"6617 Jones Common","city":"Charleneland","state":"KY","zipcode":"82331"}
{"name":"Kimberly Nguyen","address":"8961 Melissa Run Apt. 673","city":"Morganmouth","state":"MT","zipcode":"96132"}
{"name":"Jeffery Ortega","address":"71111 Davis Streets Suite 280","city":"Elizabethchester","state":"TN","zipcode":"98842"}
{"name":"Thomas Williams","address":"451 Eric Orchard Apt. 158","city":"Dannyview","state":"IN","zipcode":"56745"}
{"name":"Vanessa Cardenas","address":"402 Park Inlet","city":"Michaelburgh","state":"FL","zipcode":"74729"}
{"name":"Andrea Figueroa","address":"83667 Moore Inlet","city":"Kimberlyshire","state":"CO","zipcode":"07396"}
{"name":"Paul Williams","address":"7679 Perry Forge","city":"West Russellport","state":"TX","zipcode":"78244"}
{"name":"Mr. Andrew Foster","address":"34324 Murphy Avenue","city":"Burgessburgh","state":"MS","zipcode":"70307"}
{"name":"Kathryn Whitaker","address":"60607 Michelle Ports Suite 966","city":"Dariustown","state":"GA","zipcode":"81519"}
{"name":"Michael Cox","address":"36968 Randy Inlet Suite 352","city":"New Cynthiahaven","state":"ID","zipcode":"46294"}
{"name":"Tyler Brewer","address":"12432 Kathleen Shoal","city":"East Stephaniefort","state":"WV","zipcode":"74390"}
{"name":"Joann Glass","address":"527 Taylor Roads Suite 490","city":"Williamport","state":"NV","zipcode":"05430"}
{"name":"Ronald Jones","address":"986 Carpenter Turnpike","city":"South Reginashire","state":"ID","zipcode":"42644"}
{"name":"Kathryn Rosario","address":"51820 Jasmine Mill Apt. 554","city":"Ortizmouth","state":"PA","zipcode":"07364"}
{"name":"Maria Jones","address":"644 Mathew Prairie","city":"West Kyle","state":"UT","zipcode":"87288"}
{"name":"Kurt Hurley","address":"652 Debbie Manors Suite 054","city":"East Matthew","state":"NM","zipcode":"25667"}
{"name":"Chad Jones","address":"880 Walter River","city":"New Nicholas","state":"HI","zipcode":"91313"}
{"name":"Rhonda Martin","address":"65379 Goodwin Tunnel Suite 383","city":"Tammyfort","state":"ID","zipcode":"48714"}
{"name":"Laura Alexander","address":"8862 Laurie Dam Suite 075","city":"Lake Meghanville","state":"CO","zipcode":"21513"}
{"name":"Taylor Hernandez","address":"37506 Randy Landing Apt. 615","city":"North Lucas","state":"VT","zipcode":"85692"}
{"name":"Charles Johnson","address":"277 Rebecca Brook Suite 328","city":"Rodriguezport","state":"ME","zipcode":"16471"}
{"name":"Jason Bauer","address":"17980 Jennifer Highway Suite 095","city":"New Robert","state":"TN","zipcode":"11722"}
{"name":"Heather Ashley","address":"7065 Burgess Knolls","city":"West Johnville","state":"OR","zipcode":"96863"}
{"name":"Brandi Bell","address":"277 Lisa Circles Suite 043","city":"Port Jameston","state":"ME","zipcode":"68053"}
{"name":"Robert Kennedy","address":"345 Michelle Isle","city":"Davidstad","state":"MO","zipcode":"97927"}
{"name":"Tyler Morgan","address":"7584 Jessica Common","city":"Morrisonburgh","state":"LA","zipcode":"42602"}
{"name":"Garrett Phillips","address":"627 West Stream Suite 964","city":"North Emilyfurt","state":"NY","zipcode":"98791"}
{"name":"Tiffany Thomas","address":"21355 Herring Bypass Apt. 755","city":"Hinesshire","state":"NC","zipcode":"48597"}
{"name":"Matthew Wright","address":"27868 Jose Green","city":"Lewisport","state":"NM","zipcode":"26738"}
{"name":"Samuel Hayes","address":"55188 Vance Vista Apt. 258","city":"North Tracie","state":"DC","zipcode":"31530"}
{"name":"Allison Spencer","address":"8291 Kyle Stravenue Suite 866","city":"East Teresaland","state":"NH","zipcode":"89644"}
{"name":"Bethany Calderon","address":"68018 Kevin Estates","city":"Sarahbury","state":"NC","zipcode":"37731"}
{"name":"Danielle Reid","address":"49818 Brittany Prairie Apt. 299","city":"Meganshire","state":"AK","zipcode":"11147"}
{"name":"Martin Ray","address":"690 Small Plains","city":"Dawnport","state":"IA","zipcode":"90284"}
{"name":"Jesse Barker","address":"6773 Lawson Island","city":"Jessicastad","state":"DC","zipcode":"49068"}
{"name":"Ashley Allen","address":"7321 Kelly Lights","city":"Wrightburgh","state":"MD","zipcode":"76219"}
{"name":"Cheryl Moore","address":"4701 Wagner Garden Apt. 950","city":"West Troyfort","state":"ND","zipcode":"01572"}
{"name":"Jessica Khan","address":"5060 Michael Heights Apt. 687","city":"Marciaville","state":"CT","zipcode":"52130"}
{"name":"William Grant","address":"39868 Brandon Dam Suite 787","city":"New Patricia","state":"MD","zipcode":"80857"}
